[{"OBJECT_NAME":"PLEIADES NEO 3","OBJECT_ID":"2021-034A","EPOCH":"2026-03-08T18:21:21.947904","MEAN_MOTION":14.81674847,"ECCENTRICITY":0.00012862,"INCLINATION":97.893,"RA_OF_ASC_NODE":143.9726,"ARG_OF_PERICENTER":89.5997,"MEAN_ANOMALY":270.5363,"EPHEMERIS_TYPE":0,"CLASSIFICATION_TYPE":"U","NORAD_CAT_ID":48268,"ELEMENT_SET_NO":999,"REV_AT_EPOCH":26278,"BSTAR":8.2085883e-5,"MEAN_MOTION_DOT":5.94e-6,"MEAN_MOTION_DDOT":0},{"OBJECT_NAME":"IRIDIUM 33 DEB","OBJECT_ID":"1997-051TY","EPOCH":"2026-03-07T22:53:55.599072","MEAN_MOTION":14.83579995,"ECCENTRICITY":0.00087918,"INCLINATION":86.343,"RA_OF_ASC_NODE":303.9409,"ARG_OF_PERICENTER":267.2236,"MEAN_ANOMALY":92.798,"EPHEMERIS_TYPE":0,"CLASSIFICATION_TYPE":"U","NORAD_CAT_ID":35915,"ELEMENT_SET_NO":999,"REV_AT_EPOCH":9348,"BSTAR":0.0022315762,"MEAN_MOTION_DOT":0.0001845,"MEAN_MOTION_DDOT":0}]
